UNKNOWN                 
1 87456U          26053.00608493  .00003756  00000+0  55206-3 0  9997
2 87456  65.7710 261.5960 0509514 328.3661  28.7697 14.15044008621577
UNKNOWN                 
1 87517U          26058.26588621  .00005423  00000+0  14780-2 0  9992
2 87517  65.8234  46.2503 0674630 270.0360 105.7622 13.62010424603333
UNKNOWN                 
1 87541U          26060.83200558  .00000129  00000+0  33234-3 0  9999
2 87541  99.6988 275.7697 0060247  71.0193 353.3780 13.35612304592596
UNKNOWN                 
1 87553U          26061.53904868  .00005795  00000+0  17869-2 0  9994
2 87553  65.6707 162.6769 0692273 192.1099 166.2549 13.54074870602053
UNKNOWN                 
1 87557U          26061.07550884  .00003709  00000+0  81613-2 0  9993
2 87557 101.7705 292.0303 0058107 214.3787 145.3561 13.28494692575568
UNKNOWN                 
1 87561U          26061.11191089 -.00000030  00000+0  10051-3 0  9995
2 87561 101.9960 121.4201 0175905 148.0652 242.5151 12.32165754552210
UNKNOWN                 
1 87565U          26058.44343733  .00001532  00000+0  84316-3 0  9998
2 87565  99.9521  62.5801 0171258 323.4628  35.4951 14.06233624627218
UNKNOWN                 
1 87569U          26061.37840546 -.00000022  00000+0  13234-3 0  9997
2 87569 101.9946 246.8068 0055789  97.2675  19.9698 12.68544015568569
UNKNOWN                 
1 87590U          26057.34773347  .00000541  00000+0  32741-3 0  9996
2 87590  98.7785  97.7213 0027564  71.6501 352.0635 14.10438633164905
UNKNOWN                 
1 87616U          26061.23085113  .00001388  00000+0  48790-2 0  9995
2 87616  66.0379 352.2518 0626075 104.5886  42.7457 12.46967408546141
UNKNOWN                 
1 87624U          26060.30814367  .00009898  00000+0  15044-2 0  9992
2 87624  98.6882   7.8327 0096936   3.5947 356.5932 14.71079125591823
UNKNOWN                 
1 87650U          26039.34859461  .00013131  00000+0  25279-2 0  9991
2 87650 100.2708 233.5291 0030195 112.3966 248.0433 14.63453892 88181
UNKNOWN                 
1 87672U          26061.07095441  .00002371  00000+0  95379-3 0  9993
2 87672  70.8579 195.2177 0057026 153.7235 206.6807 14.28250251635784
UNKNOWN                 
1 87681U          26058.95560310  .00001068  00000+0  11726-2 0  9993
2 87681  66.7358 275.7574 0150167 109.3374 252.4000 13.71304653612422
UNKNOWN                 
1 87690U          26061.51603320  .00004125  00000+0  60762-3 0  9990
2 87690  65.7916 146.4170 0581478   6.5365 354.2882 14.01430951618552
UNKNOWN                 
1 87706U          26061.47235928  .00003660  00000+0  63727-3 0  9995
2 87706  98.6754 254.3895 0103925  20.8826   9.4444 14.65255431590196
UNKNOWN                 
1 87725U          26061.61696392  .00108017  00000+0  68498-2 0  9999
2 87725  82.8638 182.3952 0010149 184.5076 175.6064 15.08367007645913
