[{"OBJECT_NAME":"UNKNOWN","OBJECT_ID":"","EPOCH":"2026-02-22T00:08:45.737952","MEAN_MOTION":14.15044008,"ECCENTRICITY":0.0509514,"INCLINATION":65.771,"RA_OF_ASC_NODE":261.596,"ARG_OF_PERICENTER":328.3661,"MEAN_ANOMALY":28.7697,"EPHEMERIS_TYPE":0,"CLASSIFICATION_TYPE":"U","NORAD_CAT_ID":87456,"ELEMENT_SET_NO":999,"REV_AT_EPOCH":62157,"BSTAR":0.00055206,"MEAN_MOTION_DOT":3.756e-5,"MEAN_MOTION_DDOT":0},{"OBJECT_NAME":"UNKNOWN","OBJECT_ID":"","EPOCH":"2026-02-27T06:22:52.568544","MEAN_MOTION":13.62010424,"ECCENTRICITY":0.067463,"INCLINATION":65.8234,"RA_OF_ASC_NODE":46.2503,"ARG_OF_PERICENTER":270.036,"MEAN_ANOMALY":105.7622,"EPHEMERIS_TYPE":0,"CLASSIFICATION_TYPE":"U","NORAD_CAT_ID":87517,"ELEMENT_SET_NO":999,"REV_AT_EPOCH":60333,"BSTAR":0.001478,"MEAN_MOTION_DOT":5.423e-5,"MEAN_MOTION_DDOT":0},{"OBJECT_NAME":"UNKNOWN","OBJECT_ID":"","EPOCH":"2026-03-01T19:58:05.282112","MEAN_MOTION":13.35612304,"ECCENTRICITY":0.0060247,"INCLINATION":99.6988,"RA_OF_ASC_NODE":275.7697,"ARG_OF_PERICENTER":71.0193,"MEAN_ANOMALY":353.378,"EPHEMERIS_TYPE":0,"CLASSIFICATION_TYPE":"U","NORAD_CAT_ID":87541,"ELEMENT_SET_NO":999,"REV_AT_EPOCH":59259,"BSTAR":0.00033234,"MEAN_MOTION_DOT":1.29e-6,"MEAN_MOTION_DDOT":0},{"OBJECT_NAME":"UNKNOWN","OBJECT_ID":"","EPOCH":"2026-03-02T12:56:13.805952","MEAN_MOTION":13.5407487,"ECCENTRICITY":0.0692273,"INCLINATION":65.6707,"RA_OF_ASC_NODE":162.6769,"ARG_OF_PERICENTER":192.1099,"MEAN_ANOMALY":166.2549,"EPHEMERIS_TYPE":0,"CLASSIFICATION_TYPE":"U","NORAD_CAT_ID":87553,"ELEMENT_SET_NO":999,"REV_AT_EPOCH":60205,"BSTAR":0.0017869,"MEAN_MOTION_DOT":5.795e-5,"MEAN_MOTION_DDOT":0},{"OBJECT_NAME":"UNKNOWN","OBJECT_ID":"","EPOCH":"2026-03-02T01:48:43.963776","MEAN_MOTION":13.28494692,"ECCENTRICITY":0.0058107,"INCLINATION":101.7705,"RA_OF_ASC_NODE":292.0303,"ARG_OF_PERICENTER":214.3787,"MEAN_ANOMALY":145.3561,"EPHEMERIS_TYPE":0,"CLASSIFICATION_TYPE":"U","NORAD_CAT_ID":87557,"ELEMENT_SET_NO":999,"REV_AT_EPOCH":57556,"BSTAR":0.0081613,"MEAN_MOTION_DOT":3.709e-5,"MEAN_MOTION_DDOT":0},{"OBJECT_NAME":"UNKNOWN","OBJECT_ID":"","EPOCH":"2026-03-02T02:41:09.100896","MEAN_MOTION":12.32165754,"ECCENTRICITY":0.0175905,"INCLINATION":101.996,"RA_OF_ASC_NODE":121.4201,"ARG_OF_PERICENTER":148.0652,"MEAN_ANOMALY":242.5151,"EPHEMERIS_TYPE":0,"CLASSIFICATION_TYPE":"U","NORAD_CAT_ID":87561,"ELEMENT_SET_NO":999,"REV_AT_EPOCH":55221,"BSTAR":0.00010051,"MEAN_MOTION_DOT":-3.0e-7,"MEAN_MOTION_DDOT":0},{"OBJECT_NAME":"UNKNOWN","OBJECT_ID":"","EPOCH":"2026-02-27T10:38:32.985312","MEAN_MOTION":14.06233624,"ECCENTRICITY":0.0171258,"INCLINATION":99.9521,"RA_OF_ASC_NODE":62.5801,"ARG_OF_PERICENTER":323.4628,"MEAN_ANOMALY":35.4951,"EPHEMERIS_TYPE":0,"CLASSIFICATION_TYPE":"U","NORAD_CAT_ID":87565,"ELEMENT_SET_NO":999,"REV_AT_EPOCH":62721,"BSTAR":0.00084316,"MEAN_MOTION_DOT":1.532e-5,"MEAN_MOTION_DDOT":0},{"OBJECT_NAME":"UNKNOWN","OBJECT_ID":"","EPOCH":"2026-03-02T09:04:54.231744","MEAN_MOTION":12.68544015,"ECCENTRICITY":0.0055789,"INCLINATION":101.9946,"RA_OF_ASC_NODE":246.8068,"ARG_OF_PERICENTER":97.2675,"MEAN_ANOMALY":19.9698,"EPHEMERIS_TYPE":0,"CLASSIFICATION_TYPE":"U","NORAD_CAT_ID":87569,"ELEMENT_SET_NO":999,"REV_AT_EPOCH":56856,"BSTAR":0.00013234,"MEAN_MOTION_DOT":-2.2e-7,"MEAN_MOTION_DDOT":0},{"OBJECT_NAME":"UNKNOWN","OBJECT_ID":"","EPOCH":"2026-02-26T08:20:44.171808","MEAN_MOTION":14.10438633,"ECCENTRICITY":0.0027564,"INCLINATION":98.7785,"RA_OF_ASC_NODE":97.7213,"ARG_OF_PERICENTER":71.6501,"MEAN_ANOMALY":352.0635,"EPHEMERIS_TYPE":0,"CLASSIFICATION_TYPE":"U","NORAD_CAT_ID":87590,"ELEMENT_SET_NO":999,"REV_AT_EPOCH":16490,"BSTAR":0.00032741,"MEAN_MOTION_DOT":5.41e-6,"MEAN_MOTION_DDOT":0},{"OBJECT_NAME":"UNKNOWN","OBJECT_ID":"","EPOCH":"2026-03-02T05:32:25.537632","MEAN_MOTION":12.46967408,"ECCENTRICITY":0.0626075,"INCLINATION":66.0379,"RA_OF_ASC_NODE":352.2518,"ARG_OF_PERICENTER":104.5886,"MEAN_ANOMALY":42.7457,"EPHEMERIS_TYPE":0,"CLASSIFICATION_TYPE":"U","NORAD_CAT_ID":87616,"ELEMENT_SET_NO":999,"REV_AT_EPOCH":54614,"BSTAR":0.004879,"MEAN_MOTION_DOT":1.388e-5,"MEAN_MOTION_DDOT":0},{"OBJECT_NAME":"UNKNOWN","OBJECT_ID":"","EPOCH":"2026-03-01T07:23:43.613088","MEAN_MOTION":14.71079125,"ECCENTRICITY":0.0096936,"INCLINATION":98.6882,"RA_OF_ASC_NODE":7.8327,"ARG_OF_PERICENTER":3.5947,"MEAN_ANOMALY":356.5932,"EPHEMERIS_TYPE":0,"CLASSIFICATION_TYPE":"U","NORAD_CAT_ID":87624,"ELEMENT_SET_NO":999,"REV_AT_EPOCH":59182,"BSTAR":0.0015044,"MEAN_MOTION_DOT":9.898e-5,"MEAN_MOTION_DDOT":0},{"OBJECT_NAME":"UNKNOWN","OBJECT_ID":"","EPOCH":"2026-02-08T08:21:58.574304","MEAN_MOTION":14.63453892,"ECCENTRICITY":0.0030195,"INCLINATION":100.2708,"RA_OF_ASC_NODE":233.5291,"ARG_OF_PERICENTER":112.3966,"MEAN_ANOMALY":248.0433,"EPHEMERIS_TYPE":0,"CLASSIFICATION_TYPE":"U","NORAD_CAT_ID":87650,"ELEMENT_SET_NO":999,"REV_AT_EPOCH":8818,"BSTAR":0.0025279,"MEAN_MOTION_DOT":0.00013131,"MEAN_MOTION_DDOT":0},{"OBJECT_NAME":"UNKNOWN","OBJECT_ID":"","EPOCH":"2026-03-02T01:42:10.461024","MEAN_MOTION":14.28250251,"ECCENTRICITY":0.0057026,"INCLINATION":70.8579,"RA_OF_ASC_NODE":195.2177,"ARG_OF_PERICENTER":153.7235,"MEAN_ANOMALY":206.6807,"EPHEMERIS_TYPE":0,"CLASSIFICATION_TYPE":"U","NORAD_CAT_ID":87672,"ELEMENT_SET_NO":999,"REV_AT_EPOCH":63578,"BSTAR":0.00095379,"MEAN_MOTION_DOT":2.371e-5,"MEAN_MOTION_DDOT":0},{"OBJECT_NAME":"UNKNOWN","OBJECT_ID":"","EPOCH":"2026-02-27T22:56:04.107840","MEAN_MOTION":13.71304653,"ECCENTRICITY":0.0150167,"INCLINATION":66.7358,"RA_OF_ASC_NODE":275.7574,"ARG_OF_PERICENTER":109.3374,"MEAN_ANOMALY":252.4,"EPHEMERIS_TYPE":0,"CLASSIFICATION_TYPE":"U","NORAD_CAT_ID":87681,"ELEMENT_SET_NO":999,"REV_AT_EPOCH":61242,"BSTAR":0.0011726,"MEAN_MOTION_DOT":1.068e-5,"MEAN_MOTION_DDOT":0},{"OBJECT_NAME":"UNKNOWN","OBJECT_ID":"","EPOCH":"2026-03-02T12:23:05.268480","MEAN_MOTION":14.01430951,"ECCENTRICITY":0.0581478,"INCLINATION":65.7916,"RA_OF_ASC_NODE":146.417,"ARG_OF_PERICENTER":6.5365,"MEAN_ANOMALY":354.2882,"EPHEMERIS_TYPE":0,"CLASSIFICATION_TYPE":"U","NORAD_CAT_ID":87690,"ELEMENT_SET_NO":999,"REV_AT_EPOCH":61855,"BSTAR":0.00060762,"MEAN_MOTION_DOT":4.125e-5,"MEAN_MOTION_DDOT":0},{"OBJECT_NAME":"UNKNOWN","OBJECT_ID":"","EPOCH":"2026-03-02T11:20:11.841792","MEAN_MOTION":14.65255431,"ECCENTRICITY":0.0103925,"INCLINATION":98.6754,"RA_OF_ASC_NODE":254.3895,"ARG_OF_PERICENTER":20.8826,"MEAN_ANOMALY":9.4444,"EPHEMERIS_TYPE":0,"CLASSIFICATION_TYPE":"U","NORAD_CAT_ID":87706,"ELEMENT_SET_NO":999,"REV_AT_EPOCH":59019,"BSTAR":0.00063727,"MEAN_MOTION_DOT":3.66e-5,"MEAN_MOTION_DDOT":0},{"OBJECT_NAME":"UNKNOWN","OBJECT_ID":"","EPOCH":"2026-03-02T14:48:25.682688","MEAN_MOTION":15.08367007,"ECCENTRICITY":0.0010149,"INCLINATION":82.8638,"RA_OF_ASC_NODE":182.3952,"ARG_OF_PERICENTER":184.5076,"MEAN_ANOMALY":175.6064,"EPHEMERIS_TYPE":0,"CLASSIFICATION_TYPE":"U","NORAD_CAT_ID":87725,"ELEMENT_SET_NO":999,"REV_AT_EPOCH":64591,"BSTAR":0.0068498,"MEAN_MOTION_DOT":0.00108017,"MEAN_MOTION_DDOT":0}]
